[{"OBJECT_NAME":"STARLINK-30251","OBJECT_ID":"2023-115M","EPOCH":"2026-03-08T20:01:59.331936","MEAN_MOTION":15.26742221,"ECCENTRICITY":0.00010066,"INCLINATION":43.0011,"RA_OF_ASC_NODE":6.1686,"ARG_OF_PERICENTER":298.1512,"MEAN_ANOMALY":61.9237,"EPHEMERIS_TYPE":0,"CLASSIFICATION_TYPE":"U","NORAD_CAT_ID":57532,"ELEMENT_SET_NO":999,"REV_AT_EPOCH":14222,"BSTAR":8.0691095e-5,"MEAN_MOTION_DOT":1.905e-5,"MEAN_MOTION_DDOT":0},{"OBJECT_NAME":"FENGYUN 1C DEB","OBJECT_ID":"1999-025BLC","EPOCH":"2026-03-08T16:01:16.538592","MEAN_MOTION":14.99951534,"ECCENTRICITY":0.01625238,"INCLINATION":98.6028,"RA_OF_ASC_NODE":151.5668,"ARG_OF_PERICENTER":148.1189,"MEAN_ANOMALY":212.9995,"EPHEMERIS_TYPE":0,"CLASSIFICATION_TYPE":"U","NORAD_CAT_ID":31222,"ELEMENT_SET_NO":999,"REV_AT_EPOCH":1270,"BSTAR":0.0010673359,"MEAN_MOTION_DOT":0.00017492,"MEAN_MOTION_DDOT":0}]
